{
    "links": {
        "self": "http://www.neowsapp.com/rest/v1/neo/54095182?api_key=iIulBulltgU6a56xZRHN4H3l9WmuAYTsLGpBGhQ2"
    },
    "id": "54095182",
    "neo_reference_id": "54095182",
    "name": "(2020 WA5)",
    "designation": "2020 WA5",
    "nasa_jpl_url": "http://ssd.jpl.nasa.gov/sbdb.cgi?sstr=54095182",
    "absolute_magnitude_h": 21.494,
    "estimated_diameter": {
        "kilometers": {
            "estimated_diameter_min": 0.1335841639,
            "estimated_diameter_max": 0.2987032712
        },
        "meters": {
            "estimated_diameter_min": 133.5841639131,
            "estimated_diameter_max": 298.7032712272
        },
        "miles": {
            "estimated_diameter_min": 0.0830053255,
            "estimated_diameter_max": 0.1856055503
        },
        "feet": {
            "estimated_diameter_min": 438.2682683328,
            "estimated_diameter_max": 979.9976403732
        }
    },
    "is_potentially_hazardous_asteroid": true,
    "close_approach_data": [
        {
            "close_approach_date": "2021-01-02",
            "close_approach_date_full": "2021-Jan-02 09:42",
            "epoch_date_close_approach": 1609580520000,
            "relative_velocity": {
                "kilometers_per_second": "7.4056009936",
                "kilometers_per_hour": "26660.1635771229",
                "miles_per_hour": "16565.5888626851"
            },
            "miss_distance": {
                "astronomical": "0.0777672473",
                "lunar": "30.2514591997",
                "kilometers": "11633814.551843251",
                "miles": "7228917.1531728238"
            },
            "orbiting_body": "Earth"
        }
    ],
    "orbital_data": {
        "orbit_id": "8",
        "orbit_determination_date": "2020-12-08 05:24:02",
        "first_observation_date": "2020-11-25",
        "last_observation_date": "2020-12-08",
        "data_arc_in_days": 13,
        "observations_used": 90,
        "orbit_uncertainty": "8",
        "minimum_orbit_intersection": ".0391292",
        "jupiter_tisserand_invariant": "3.649",
        "epoch_osculation": "2459183.5",
        "eccentricity": ".4963318516781651",
        "semi_major_axis": "2.023748150382828",
        "inclination": "5.723315896142502",
        "ascending_node_longitude": "307.6568484193767",
        "orbital_period": "1051.557739427886",
        "perihelion_distance": "1.019297483573057",
        "perihelion_argument": "167.5005627621319",
        "aphelion_distance": "3.028198817192599",
        "perihelion_time": "2459225.728380464230",
        "mean_anomaly": "345.5431457568903",
        "mean_motion": ".342349246743087",
        "equinox": "J2000",
        "orbit_class": {
            "orbit_class_type": "AMO",
            "orbit_class_description": "Near-Earth asteroid orbits similar to that of 1221 Amor",
            "orbit_class_range": "1.017 AU < q (perihelion) < 1.3 AU"
        }
    },
    "is_sentry_object": false
}